{
    "links": {
        "self": "http://www.neowsapp.com/rest/v1/neo/3943334?api_key=iIulBulltgU6a56xZRHN4H3l9WmuAYTsLGpBGhQ2"
    },
    "id": "3943334",
    "neo_reference_id": "3943334",
    "name": "(2019 YJ1)",
    "designation": "2019 YJ1",
    "nasa_jpl_url": "http://ssd.jpl.nasa.gov/sbdb.cgi?sstr=3943334",
    "absolute_magnitude_h": 24.5,
    "estimated_diameter": {
        "kilometers": {
            "estimated_diameter_min": 0.0334622374,
            "estimated_diameter_max": 0.0748238376
        },
        "meters": {
            "estimated_diameter_min": 33.4622374455,
            "estimated_diameter_max": 74.8238376074
        },
        "miles": {
            "estimated_diameter_min": 0.0207924639,
            "estimated_diameter_max": 0.0464933628
        },
        "feet": {
            "estimated_diameter_min": 109.7842471007,
            "estimated_diameter_max": 245.4850393757
        }
    },
    "is_potentially_hazardous_asteroid": false,
    "close_approach_data": [
        {
            "close_approach_date": "2019-12-17",
            "close_approach_date_full": "2019-Dec-17 17:48",
            "epoch_date_close_approach": 1576604880000,
            "relative_velocity": {
                "kilometers_per_second": "11.8232446367",
                "kilometers_per_hour": "42563.680692007",
                "miles_per_hour": "26447.415927764"
            },
            "miss_distance": {
                "astronomical": "0.0941557865",
                "lunar": "36.6266009485",
                "kilometers": "14085505.108574755",
                "miles": "8752327.023671419"
            },
            "orbiting_body": "Earth"
        },
        {
            "close_approach_date": "2196-07-23",
            "close_approach_date_full": "2196-Jul-23 22:09",
            "epoch_date_close_approach": 7149593340000,
            "relative_velocity": {
                "kilometers_per_second": "10.4676612598",
                "kilometers_per_hour": "37683.5805354524",
                "miles_per_hour": "23415.1114721538"
            },
            "miss_distance": {
                "astronomical": "0.4669233239",
                "lunar": "181.6331729971",
                "kilometers": "69850734.708760093",
                "miles": "43403233.9133235634"
            },
            "orbiting_body": "Earth"
        }
    ],
    "orbital_data": {
        "orbit_id": "2",
        "orbit_determination_date": "2019-12-23 05:47:16",
        "first_observation_date": "2019-12-19",
        "last_observation_date": "2019-12-23",
        "data_arc_in_days": 4,
        "observations_used": 37,
        "orbit_uncertainty": "8",
        "minimum_orbit_intersection": ".0829475",
        "jupiter_tisserand_invariant": "5.203",
        "epoch_osculation": "2458837.5",
        "eccentricity": ".1216799898871733",
        "semi_major_axis": "1.204340395286327",
        "inclination": "22.48541614641394",
        "ascending_node_longitude": "83.91974081342373",
        "orbital_period": "482.7500273387958",
        "perihelion_distance": "1.057796268167172",
        "perihelion_argument": "23.65956352524627",
        "aphelion_distance": "1.350884522405481",
        "perihelion_time": "2458861.204338319899",
        "mean_anomaly": "342.3230216221723",
        "mean_motion": ".7457275600470357",
        "equinox": "J2000",
        "orbit_class": {
            "orbit_class_type": "AMO",
            "orbit_class_description": "Near-Earth asteroid orbits similar to that of 1221 Amor",
            "orbit_class_range": "1.017 AU < q (perihelion) < 1.3 AU"
        }
    },
    "is_sentry_object": false
}